SL-14 R/B               
1 21423U 91042B   26001.29804326  .00000821  00000+0  10087-3 0  9990
2 21423  82.4937 283.3847 0018556 101.4173 258.9127 14.81760408843091
ERS-1                   
1 21574U 91050A   25365.99241621  .00000617  00000+0  21185-3 0  9992
2 21574  98.7897  17.5281 0032703  44.5085 315.8720 14.39382423805990
ARIANE 40 R/B           
1 21610U 91050F   26001.13488710  .00000629  00000+0  20096-3 0  9992
2 21610  98.2138  55.8630 0001968 281.7711  78.3259 14.42831684809250
INTERCOSMOS 25          
1 21819U 91086A   25365.87213521  .00002458  00000+0  48960-3 0  9993
2 21819  82.6077 351.0027 1486089 263.1308  79.9072 12.11808809488473
SL-8 R/B                
1 21876U 92008B   26001.32301264  .00000167  00000+0  15640-3 0  9995
2 21876  82.9278 317.8806 0033991 324.9142 145.5060 13.75963805700156
SL-8 R/B                
1 21938U 92020B   26001.06437565  .00000235  00000+0  22773-3 0  9994
2 21938  82.9290 203.9670 0029986 125.2124  34.6714 13.75533062691830
USA 81                  
1 21949U 92023A   25365.89610958  .00000377  00000+0  13219-3 0  9993
2 21949  85.0089 170.5282 0001078 101.5823 258.5491 14.32335642 85086
COSMOS 2219             
1 22219U 92076A   25365.89494392  .00000437  00000+0  25410-3 0  9997
2 22219  71.0599 159.7902 0019873 300.4470  59.4688 14.14074411708796
SL-16 R/B               
1 22220U 92076B   26001.28215700 -.00000126  00000+0 -39071-4 0  9990
2 22220  71.0012 330.3654 0013855 207.6984 257.4656 14.16845681712282
COSMOS 2221             
1 22236U 92080A   26001.01689503  .00004271  00000+0  37912-3 0  9993
2 22236  82.5040 343.8721 0016147  63.0839 297.2030 14.95853394770673
SL-16 R/B               
1 22285U 92093B   26001.31991459 -.00000150  00000+0 -52412-4 0  9997
2 22285  71.0212 145.6938 0002877  14.8467 345.2740 14.15434639703627
COSMOS 2228             
1 22286U 92094A   26001.27798367  .00003678  00000+0  31778-3 0  9994
2 22286  82.5191 301.8394 0018317 163.2220 196.9613 14.96836233765976
