CCSDS_OMM_VERS = 2.0
CREATION_DATE  = 
ORIGINATOR     = 

OBJECT_NAME    = SL-14 R/B
OBJECT_ID      = 1991-042B
CENTER_NAME    = EARTH
REF_FRAME      = TEME
TIME_SYSTEM    = UTC
MEAN_ELEMENT_THEORY = SGP/SGP4

EPOCH          = 2026-01-01T07:09:10.937664
MEAN_MOTION    = 14.81760408
ECCENTRICITY   = .00185565
INCLINATION    = 82.4937
RA_OF_ASC_NODE = 283.3847
ARG_OF_PERICENTER = 101.4173
MEAN_ANOMALY   = 258.9127

EPHEMERIS_TYPE = 0
CLASSIFICATION_TYPE = U
NORAD_CAT_ID   = 21423
ELEMENT_SET_NO = 999
REV_AT_EPOCH   = 84309
BSTAR          = .10086523E-3
MEAN_MOTION_DOT = .821E-5
MEAN_MOTION_DDOT = 0

CCSDS_OMM_VERS = 2.0
CREATION_DATE  = 
ORIGINATOR     = 

OBJECT_NAME    = ERS-1
OBJECT_ID      = 1991-050A
CENTER_NAME    = EARTH
REF_FRAME      = TEME
TIME_SYSTEM    = UTC
MEAN_ELEMENT_THEORY = SGP/SGP4

EPOCH          = 2025-12-31T23:49:04.760544
MEAN_MOTION    = 14.39382423
ECCENTRICITY   = .00327036
INCLINATION    = 98.7897
RA_OF_ASC_NODE = 17.5281
ARG_OF_PERICENTER = 44.5085
MEAN_ANOMALY   = 315.8720

EPHEMERIS_TYPE = 0
CLASSIFICATION_TYPE = U
NORAD_CAT_ID   = 21574
ELEMENT_SET_NO = 999
REV_AT_EPOCH   = 80599
BSTAR          = .2118506E-3
MEAN_MOTION_DOT = .617E-5
MEAN_MOTION_DDOT = 0

CCSDS_OMM_VERS = 2.0
CREATION_DATE  = 
ORIGINATOR     = 

OBJECT_NAME    = ARIANE 40 R/B
OBJECT_ID      = 1991-050F
CENTER_NAME    = EARTH
REF_FRAME      = TEME
TIME_SYSTEM    = UTC
MEAN_ELEMENT_THEORY = SGP/SGP4

EPOCH          = 2026-01-01T03:14:14.245440
MEAN_MOTION    = 14.42831684
ECCENTRICITY   = .00019686
INCLINATION    = 98.2138
RA_OF_ASC_NODE = 55.8630
ARG_OF_PERICENTER = 281.7711
MEAN_ANOMALY   = 78.3259

EPHEMERIS_TYPE = 0
CLASSIFICATION_TYPE = U
NORAD_CAT_ID   = 21610
ELEMENT_SET_NO = 999
REV_AT_EPOCH   = 80925
BSTAR          = .20096024E-3
MEAN_MOTION_DOT = .629E-5
MEAN_MOTION_DDOT = 0

CCSDS_OMM_VERS = 2.0
CREATION_DATE  = 
ORIGINATOR     = 

OBJECT_NAME    = INTERCOSMOS 25
OBJECT_ID      = 1991-086A
CENTER_NAME    = EARTH
REF_FRAME      = TEME
TIME_SYSTEM    = UTC
MEAN_ELEMENT_THEORY = SGP/SGP4

EPOCH          = 2025-12-31T20:55:52.482144
MEAN_MOTION    = 12.11808809
ECCENTRICITY   = .1486089
INCLINATION    = 82.6077
RA_OF_ASC_NODE = 351.0027
ARG_OF_PERICENTER = 263.1308
MEAN_ANOMALY   = 79.9072

EPHEMERIS_TYPE = 0
CLASSIFICATION_TYPE = U
NORAD_CAT_ID   = 21819
ELEMENT_SET_NO = 999
REV_AT_EPOCH   = 48847
BSTAR          = .4896E-3
MEAN_MOTION_DOT = .2458E-4
MEAN_MOTION_DDOT = 0

CCSDS_OMM_VERS = 2.0
CREATION_DATE  = 
ORIGINATOR     = 

OBJECT_NAME    = SL-8 R/B
OBJECT_ID      = 1992-008B
CENTER_NAME    = EARTH
REF_FRAME      = TEME
TIME_SYSTEM    = UTC
MEAN_ELEMENT_THEORY = SGP/SGP4

EPOCH          = 2026-01-01T07:45:08.292096
MEAN_MOTION    = 13.75963805
ECCENTRICITY   = .0033991
INCLINATION    = 82.9278
RA_OF_ASC_NODE = 317.8806
ARG_OF_PERICENTER = 324.9142
MEAN_ANOMALY   = 145.5060

EPHEMERIS_TYPE = 0
CLASSIFICATION_TYPE = U
NORAD_CAT_ID   = 21876
ELEMENT_SET_NO = 999
REV_AT_EPOCH   = 70015
BSTAR          = .15639663E-3
MEAN_MOTION_DOT = .167E-5
MEAN_MOTION_DDOT = 0

CCSDS_OMM_VERS = 2.0
CREATION_DATE  = 
ORIGINATOR     = 

OBJECT_NAME    = SL-8 R/B
OBJECT_ID      = 1992-020B
CENTER_NAME    = EARTH
REF_FRAME      = TEME
TIME_SYSTEM    = UTC
MEAN_ELEMENT_THEORY = SGP/SGP4

EPOCH          = 2026-01-01T01:32:42.056160
MEAN_MOTION    = 13.75533062
ECCENTRICITY   = .00299867
INCLINATION    = 82.9290
RA_OF_ASC_NODE = 203.9670
ARG_OF_PERICENTER = 125.2124
MEAN_ANOMALY   = 34.6714

EPHEMERIS_TYPE = 0
CLASSIFICATION_TYPE = U
NORAD_CAT_ID   = 21938
ELEMENT_SET_NO = 999
REV_AT_EPOCH   = 69183
BSTAR          = .22772552E-3
MEAN_MOTION_DOT = .235E-5
MEAN_MOTION_DDOT = 0

CCSDS_OMM_VERS = 2.0
CREATION_DATE  = 
ORIGINATOR     = 

OBJECT_NAME    = USA 81
OBJECT_ID      = 1992-023A
CENTER_NAME    = EARTH
REF_FRAME      = TEME
TIME_SYSTEM    = UTC
MEAN_ELEMENT_THEORY = SGP/SGP4

EPOCH          = 2025-12-31T21:30:23.867712
MEAN_MOTION    = 14.32335642
ECCENTRICITY   = .0001078
INCLINATION    = 85.0089
RA_OF_ASC_NODE = 170.5282
ARG_OF_PERICENTER = 101.5823
MEAN_ANOMALY   = 258.5491

EPHEMERIS_TYPE = 0
CLASSIFICATION_TYPE = U
NORAD_CAT_ID   = 21949
ELEMENT_SET_NO = 999
REV_AT_EPOCH   = 8508
BSTAR          = .13219E-3
MEAN_MOTION_DOT = .377E-5
MEAN_MOTION_DDOT = 0

CCSDS_OMM_VERS = 2.0
CREATION_DATE  = 
ORIGINATOR     = 

OBJECT_NAME    = COSMOS 2219
OBJECT_ID      = 1992-076A
CENTER_NAME    = EARTH
REF_FRAME      = TEME
TIME_SYSTEM    = UTC
MEAN_ELEMENT_THEORY = SGP/SGP4

EPOCH          = 2025-12-31T21:28:43.154688
MEAN_MOTION    = 14.14074411
ECCENTRICITY   = .0019873
INCLINATION    = 71.0599
RA_OF_ASC_NODE = 159.7902
ARG_OF_PERICENTER = 300.4470
MEAN_ANOMALY   = 59.4688

EPHEMERIS_TYPE = 0
CLASSIFICATION_TYPE = U
NORAD_CAT_ID   = 22219
ELEMENT_SET_NO = 999
REV_AT_EPOCH   = 70879
BSTAR          = .2541E-3
MEAN_MOTION_DOT = .437E-5
MEAN_MOTION_DDOT = 0

CCSDS_OMM_VERS = 2.0
CREATION_DATE  = 
ORIGINATOR     = 

OBJECT_NAME    = SL-16 R/B
OBJECT_ID      = 1992-076B
CENTER_NAME    = EARTH
REF_FRAME      = TEME
TIME_SYSTEM    = UTC
MEAN_ELEMENT_THEORY = SGP/SGP4

EPOCH          = 2026-01-01T06:46:18.364800
MEAN_MOTION    = 14.16845681
ECCENTRICITY   = .00138552
INCLINATION    = 71.0012
RA_OF_ASC_NODE = 330.3654
ARG_OF_PERICENTER = 207.6984
MEAN_ANOMALY   = 257.4656

EPHEMERIS_TYPE = 0
CLASSIFICATION_TYPE = U
NORAD_CAT_ID   = 22220
ELEMENT_SET_NO = 999
REV_AT_EPOCH   = 71228
BSTAR          = -.39070987E-4
MEAN_MOTION_DOT = -.126E-5
MEAN_MOTION_DDOT = 0

CCSDS_OMM_VERS = 2.0
CREATION_DATE  = 
ORIGINATOR     = 

OBJECT_NAME    = COSMOS 2221
OBJECT_ID      = 1992-080A
CENTER_NAME    = EARTH
REF_FRAME      = TEME
TIME_SYSTEM    = UTC
MEAN_ELEMENT_THEORY = SGP/SGP4

EPOCH          = 2026-01-01T00:24:19.730592
MEAN_MOTION    = 14.95853394
ECCENTRICITY   = .00161474
INCLINATION    = 82.5040
RA_OF_ASC_NODE = 343.8721
ARG_OF_PERICENTER = 63.0839
MEAN_ANOMALY   = 297.2030

EPHEMERIS_TYPE = 0
CLASSIFICATION_TYPE = U
NORAD_CAT_ID   = 22236
ELEMENT_SET_NO = 999
REV_AT_EPOCH   = 77067
BSTAR          = .3791217E-3
MEAN_MOTION_DOT = .4271E-4
MEAN_MOTION_DDOT = 0

CCSDS_OMM_VERS = 2.0
CREATION_DATE  = 
ORIGINATOR     = 

OBJECT_NAME    = SL-16 R/B
OBJECT_ID      = 1992-093B
CENTER_NAME    = EARTH
REF_FRAME      = TEME
TIME_SYSTEM    = UTC
MEAN_ELEMENT_THEORY = SGP/SGP4

EPOCH          = 2026-01-01T07:40:40.620576
MEAN_MOTION    = 14.15434639
ECCENTRICITY   = .00028771
INCLINATION    = 71.0212
RA_OF_ASC_NODE = 145.6938
ARG_OF_PERICENTER = 14.8467
MEAN_ANOMALY   = 345.2740

EPHEMERIS_TYPE = 0
CLASSIFICATION_TYPE = U
NORAD_CAT_ID   = 22285
ELEMENT_SET_NO = 999
REV_AT_EPOCH   = 70362
BSTAR          = -.52412203E-4
MEAN_MOTION_DOT = -.15E-5
MEAN_MOTION_DDOT = 0

CCSDS_OMM_VERS = 2.0
CREATION_DATE  = 
ORIGINATOR     = 

OBJECT_NAME    = COSMOS 2228
OBJECT_ID      = 1992-094A
CENTER_NAME    = EARTH
REF_FRAME      = TEME
TIME_SYSTEM    = UTC
MEAN_ELEMENT_THEORY = SGP/SGP4

EPOCH          = 2026-01-01T06:40:17.789088
MEAN_MOTION    = 14.96836233
ECCENTRICITY   = .00183172
INCLINATION    = 82.5191
RA_OF_ASC_NODE = 301.8394
ARG_OF_PERICENTER = 163.2220
MEAN_ANOMALY   = 196.9613

EPHEMERIS_TYPE = 0
CLASSIFICATION_TYPE = U
NORAD_CAT_ID   = 22286
ELEMENT_SET_NO = 999
REV_AT_EPOCH   = 76597
BSTAR          = .31778222E-3
MEAN_MOTION_DOT = .3678E-4
MEAN_MOTION_DDOT = 0

